NODE_6_6
1 00000U 23666A   24061.51139475  .00000000  00000-0 00000000 0 00003
2 00000  90.0000 051.4286 0000011   0.0000 132.8571 20.00000000000008
NODE_6_7
1 00000U 23666A   24061.51139475  .00000000  00000-0 00000000 0 00003
2 00000  90.0000 051.4286 0000011   0.0000 150.0000 20.00000000000007
NODE_6_8
1 00000U 23666A   24061.51139475  .00000000  00000-0 00000000 0 00003
2 00000  90.0000 051.4286 0000011   0.0000 167.1429 20.00000000000001
NODE_6_9
1 00000U 23666A   24061.51139475  .00000000  00000-0 00000000 0 00003
2 00000  90.0000 051.4286 0000011   0.0000 184.2857 20.00000000000006
NODE_6_10
1 00000U 23666A   24061.51139475  .00000000  00000-0 00000000 0 00003
2 00000  90.0000 051.4286 0000011   0.0000 201.4286 20.00000000000004
NODE_6_11
1 00000U 23666A   24061.51139475  .00000000  00000-0 00000000 0 00003
2 00000  90.0000 051.4286 0000011   0.0000 218.5714 20.00000000000009
NODE_6_12
1 00000U 23666A   24061.51139475  .00000000  00000-0 00000000 0 00003
2 00000  90.0000 051.4286 0000011   0.0000 235.7143 20.00000000000006
NODE_6_13
1 00000U 23666A   24061.51139475  .00000000  00000-0 00000000 0 00003
2 00000  90.0000 051.4286 0000011   0.0000 252.8571 20.00000000000001
NODE_6_14
1 00000U 23666A   24061.51139475  .00000000  00000-0 00000000 0 00003
2 00000  90.0000 051.4286 0000011   0.0000 270.0000 20.00000000000000
NODE_6_15
1 00000U 23666A   24061.51139475  .00000000  00000-0 00000000 0 00003
2 00000  90.0000 051.4286 0000011   0.0000 287.1429 20.00000000000004
NODE_6_16
1 00000U 23666A   24061.51139475  .00000000  00000-0 00000000 0 00003
2 00000  90.0000 051.4286 0000011   0.0000 304.2857 20.00000000000000
NODE_6_17
1 00000U 23666A   24061.51139475  .00000000  00000-0 00000000 0 00003
2 00000  90.0000 051.4286 0000011   0.0000 321.4286 20.00000000000007
NODE_6_18
1 00000U 23666A   24061.51139475  .00000000  00000-0 00000000 0 00003
2 00000  90.0000 051.4286 0000011   0.0000 338.5714 20.00000000000002
NODE_6_19
1 00000U 23666A   24061.51139475  .00000000  00000-0 00000000 0 00003
2 00000  90.0000 051.4286 0000011   0.0000 355.7143 20.00000000000009
NODE_6_20
1 00000U 23666A   24061.51139475  .00000000  00000-0 00000000 0 00003
2 00000  90.0000 051.4286 0000011   0.0000 372.8571 20.00000000000004
NODE_7_0
1 00000U 23666A   24061.51139475  .00000000  00000-0 00000000 0 00003
2 00000  90.0000 060.0000 0000011   0.0000  35.0000 20.00000000000009
NODE_7_1
1 00000U 23666A   24061.51139475  .00000000  00000-0 00000000 0 00003
2 00000  90.0000 060.0000 0000011   0.0000  52.1429 20.00000000000004
NODE_7_2
1 00000U 23666A   24061.51139475  .00000000  00000-0 00000000 0 00003
2 00000  90.0000 060.0000 0000011   0.0000  69.2857 20.00000000000008
NODE_7_3
1 00000U 23666A   24061.51139475  .00000000  00000-0 00000000 0 00003
2 00000  90.0000 060.0000 0000011   0.0000  86.4286 20.00000000000005
NODE_7_4
1 00000U 23666A   24061.51139475  .00000000  00000-0 00000000 0 00003
2 00000  90.0000 060.0000 0000011   0.0000 103.5714 20.00000000000002
NODE_7_5
1 00000U 23666A   24061.51139475  .00000000  00000-0 00000000 0 00003
2 00000  90.0000 060.0000 0000011   0.0000 120.7143 20.00000000000009
NODE_7_6
1 00000U 23666A   24061.51139475  .00000000  00000-0 00000000 0 00003
2 00000  90.0000 060.0000 0000011   0.0000 137.8571 20.00000000000003
NODE_7_7
1 00000U 23666A   24061.51139475  .00000000  00000-0 00000000 0 00003
2 00000  90.0000 060.0000 0000011   0.0000 155.0000 20.00000000000002
NODE_7_8
1 00000U 23666A   24061.51139475  .00000000  00000-0 00000000 0 00003
2 00000  90.0000 060.0000 0000011   0.0000 172.1429 20.00000000000007
NODE_7_9
1 00000U 23666A   24061.51139475  .00000000  00000-0 00000000 0 00003
2 00000  90.0000 060.0000 0000011   0.0000 189.2857 20.00000000000001
NODE_7_10
1 00000U 23666A   24061.51139475  .00000000  00000-0 00000000 0 00003
2 00000  90.0000 060.0000 0000011   0.0000 206.4286 20.00000000000009
NODE_7_11
1 00000U 23666A   24061.51139475  .00000000  00000-0 00000000 0 00003
2 00000  90.0000 060.0000 0000011   0.0000 223.5714 20.00000000000005
NODE_7_12
1 00000U 23666A   24061.51139475  .00000000  00000-0 00000000 0 00003
2 00000  90.0000 060.0000 0000011   0.0000 240.7143 20.00000000000002
NODE_7_13
1 00000U 23666A   24061.51139475  .00000000  00000-0 00000000 0 00003
2 00000  90.0000 060.0000 0000011   0.0000 257.8571 20.00000000000006
NODE_7_14
1 00000U 23666A   24061.51139475  .00000000  00000-0 00000000 0 00003
2 00000  90.0000 060.0000 0000011   0.0000 275.0000 20.00000000000005
NODE_7_15
1 00000U 23666A   24061.51139475  .00000000  00000-0 00000000 0 00003
2 00000  90.0000 060.0000 0000011   0.0000 292.1429 20.00000000000000
NODE_7_16
1 00000U 23666A   24061.51139475  .00000000  00000-0 00000000 0 00003
2 00000  90.0000 060.0000 0000011   0.0000 309.2857 20.00000000000005
NODE_7_17
1 00000U 23666A   24061.51139475  .00000000  00000-0 00000000 0 00003
2 00000  90.0000 060.0000 0000011   0.0000 326.4286 20.00000000000002
NODE_7_18
1 00000U 23666A   24061.51139475  .00000000  00000-0 00000000 0 00003
2 00000  90.0000 060.0000 0000011   0.0000 343.5714 20.00000000000008
NODE_7_19
1 00000U 23666A   24061.51139475  .00000000  00000-0 00000000 0 00003
2 00000  90.0000 060.0000 0000011   0.0000 360.7143 20.00000000000005
NODE_7_20
1 00000U 23666A   24061.51139475  .00000000  00000-0 00000000 0 00003
2 00000  90.0000 060.0000 0000011   0.0000 377.8571 20.00000000000009
NODE_8_0
1 00000U 23666A   24061.51139475  .00000000  00000-0 00000000 0 00003
2 00000  90.0000 068.5714 0000011   0.0000  40.0000 20.00000000000000
NODE_8_1
1 00000U 23666A   24061.51139475  .00000000  00000-0 00000000 0 00003
2 00000  90.0000 068.5714 0000011   0.0000  57.1429 20.00000000000004
NODE_8_2
1 00000U 23666A   24061.51139475  .00000000  00000-0 00000000 0 00003
2 00000  90.0000 068.5714 0000011   0.0000  74.2857 20.00000000000009
NODE_8_3
1 00000U 23666A   24061.51139475  .00000000  00000-0 00000000 0 00003
2 00000  90.0000 068.5714 0000011   0.0000  91.4286 20.00000000000006
NODE_8_4
1 00000U 23666A   24061.51139475  .00000000  00000-0 00000000 0 00003
2 00000  90.0000 068.5714 0000011   0.0000 108.5714 20.00000000000002
NODE_8_5
1 00000U 23666A   24061.51139475  .00000000  00000-0 00000000 0 00003
2 00000  90.0000 068.5714 0000011   0.0000 125.7143 20.00000000000009
NODE_8_6
1 00000U 23666A   24061.51139475  .00000000  00000-0 00000000 0 00003
2 00000  90.0000 068.5714 0000011   0.0000 142.8571 20.00000000000004
NODE_8_7
1 00000U 23666A   24061.51139475  .00000000  00000-0 00000000 0 00003
2 00000  90.0000 068.5714 0000011   0.0000 160.0000 20.00000000000003
NODE_8_8
1 00000U 23666A   24061.51139475  .00000000  00000-0 00000000 0 00003
2 00000  90.0000 068.5714 0000011   0.0000 177.1429 20.00000000000007
NODE_8_9
1 00000U 23666A   24061.51139475  .00000000  00000-0 00000000 0 00003
2 00000  90.0000 068.5714 0000011   0.0000 194.2857 20.00000000000002
NODE_8_10
1 00000U 23666A   24061.51139475  .00000000  00000-0 00000000 0 00003
2 00000  90.0000 068.5714 0000011   0.0000 211.4286 20.00000000000000
NODE_8_11
1 00000U 23666A   24061.51139475  .00000000  00000-0 00000000 0 00003
2 00000  90.0000 068.5714 0000011   0.0000 228.5714 20.00000000000005
NODE_8_12
1 00000U 23666A   24061.51139475  .00000000  00000-0 00000000 0 00003
2 00000  90.0000 068.5714 0000011   0.0000 245.7143 20.00000000000002
NODE_8_13
1 00000U 23666A   24061.51139475  .00000000  00000-0 00000000 0 00003
2 00000  90.0000 068.5714 0000011   0.0000 262.8571 20.00000000000007
NODE_8_14
1 00000U 23666A   24061.51139475  .00000000  00000-0 00000000 0 00003
2 00000  90.0000 068.5714 0000011   0.0000 280.0000 20.00000000000006
NODE_8_15
1 00000U 23666A   24061.51139475  .00000000  00000-0 00000000 0 00003
2 00000  90.0000 068.5714 0000011   0.0000 297.1429 20.00000000000000
NODE_8_16
1 00000U 23666A   24061.51139475  .00000000  00000-0 00000000 0 00003
2 00000  90.0000 068.5714 0000011   0.0000 314.2857 20.00000000000006
NODE_8_17
1 00000U 23666A   24061.51139475  .00000000  00000-0 00000000 0 00003
2 00000  90.0000 068.5714 0000011   0.0000 331.4286 20.00000000000003
NODE_8_18
1 00000U 23666A   24061.51139475  .00000000  00000-0 00000000 0 00003
2 00000  90.0000 068.5714 0000011   0.0000 348.5714 20.00000000000008
NODE_8_19
1 00000U 23666A   24061.51139475  .00000000  00000-0 00000000 0 00003
2 00000  90.0000 068.5714 0000011   0.0000 365.7143 20.00000000000005
NODE_8_20
1 00000U 23666A   24061.51139475  .00000000  00000-0 00000000 0 00003
2 00000  90.0000 068.5714 0000011   0.0000 382.8571 20.00000000000000
NODE_9_0
1 00000U 23666A   24061.51139475  .00000000  00000-0 00000000 0 00003
2 00000  90.0000 077.1429 0000011   0.0000  45.0000 20.00000000000004
NODE_9_1
1 00000U 23666A   24061.51139475  .00000000  00000-0 00000000 0 00003
2 00000  90.0000 077.1429 0000011   0.0000  62.1429 20.00000000000009
NODE_9_2
1 00000U 23666A   24061.51139475  .00000000  00000-0 00000000 0 00003
2 00000  90.0000 077.1429 0000011   0.0000  79.2857 20.00000000000003
NODE_9_3
1 00000U 23666A   24061.51139475  .00000000  00000-0 00000000 0 00003
2 00000  90.0000 077.1429 0000011   0.0000  96.4286 20.00000000000000
NODE_9_4
1 00000U 23666A   24061.51139475  .00000000  00000-0 00000000 0 00003
2 00000  90.0000 077.1429 0000011   0.0000 113.5714 20.00000000000007
NODE_9_5
1 00000U 23666A   24061.51139475  .00000000  00000-0 00000000 0 00003
2 00000  90.0000 077.1429 0000011   0.0000 130.7143 20.00000000000004
NODE_9_6
1 00000U 23666A   24061.51139475  .00000000  00000-0 00000000 0 00003
2 00000  90.0000 077.1429 0000011   0.0000 147.8571 20.00000000000008
NODE_9_7
1 00000U 23666A   24061.51139475  .00000000  00000-0 00000000 0 00003
2 00000  90.0000 077.1429 0000011   0.0000 165.0000 20.00000000000007
NODE_9_8
1 00000U 23666A   24061.51139475  .00000000  00000-0 00000000 0 00003
2 00000  90.0000 077.1429 0000011   0.0000 182.1429 20.00000000000002
